STARLINK-31113          
1 58668U 23211B   26068.07198492 -.00001568  00000+0 -47465-4 0  9995
2 58668  43.0030  88.4648 0001008 277.8231  82.2506 15.27578061122372
FLOCK 4G-2              
1 62661U 25009BE  26068.66207492  .00013752  00000+0  51068-3 0  9995
2 62661  97.4044 151.2221 0003181 329.2677  30.8376 15.27675260121321
